OBJECT_NAME,OBJECT_ID,EPOCH,MEAN_MOTION,ECCENTRICITY,INCLINATION,RA_OF_ASC_NODE,ARG_OF_PERICENTER,MEAN_ANOMALY,EPHEMERIS_TYPE,CLASSIFICATION_TYPE,NORAD_CAT_ID,ELEMENT_SET_NO,REV_AT_EPOCH,BSTAR,MEAN_MOTION_DOT,MEAN_MOTION_DDOT
STARLINK-37923,2026-157G,2026-07-17T22:00:01.999584,15.82731844,.00009044,53.1592,282.0746,77.0581,95.3482,0,U,69949,999,259,-.11334495E-1,-.2098062E-1,0
STARLINK-37895,2026-157H,2026-07-17T22:00:01.999584,15.83010481,.00012139,53.1591,282.0596,72.3961,107.0674,0,U,69950,999,259,-.11449765E-1,-.2140641E-1,0
STARLINK-37841,2026-157J,2026-07-17T22:00:01.999584,15.83284507,.00010969,53.1593,282.0388,75.2235,114.2834,0,U,69951,999,259,-.88177678E-2,-.1691004E-1,0
STARLINK-37899,2026-157K,2026-07-17T22:00:01.999584,15.83846321,.00011501,53.1590,282.0161,74.1472,126.2053,0,U,69952,999,259,-.10386864E-1,-.2038473E-1,0
STARLINK-37900,2026-157L,2026-07-17T22:00:01.999584,15.84028071,.00014364,53.1590,282.0094,66.5171,137.2244,0,U,69953,999,259,-.10244743E-1,-.2030056E-1,0
STARLINK-37882,2026-157M,2026-07-17T22:00:01.999584,15.84578376,.00010125,53.1591,281.9890,70.3541,142.9944,0,U,69954,999,259,-.11037679E-1,-.2212171E-1,0
STARLINK-37928,2026-157N,2026-07-17T22:00:01.999584,15.84437784,.00011197,53.1593,281.9866,70.3617,144.0879,0,U,69955,999,259,-.1122313E-1,-.2230648E-1,0
STARLINK-37824,2026-157P,2026-07-17T22:00:01.999584,15.84526191,.00012137,53.1590,281.9845,83.8147,131.8086,0,U,69956,999,259,-.1109506E-1,-.2217371E-1,0
STARLINK-37919,2026-157Q,2026-07-17T22:00:01.999584,15.84472154,.00009267,53.1592,281.9821,72.3178,144.4390,0,U,69957,999,259,-.11173023E-1,-.2225143E-1,0
STARLINK-37964,2026-157R,2026-07-17T22:00:01.999584,15.84774315,.00009146,53.1590,281.9697,75.2977,147.3787,0,U,69958,999,259,-.11607815E-1,-.2384727E-1,0
STARLINK-37907,2026-157S,2026-07-17T22:00:01.999584,15.85246335,.00010487,53.1589,281.9525,72.7238,158.2407,0,U,69959,999,259,-.10619161E-1,-.2201049E-1,0
STARLINK-37901,2026-157T,2026-07-17T22:00:01.999584,15.85439132,.00010606,53.1588,281.9400,78.3865,158.6032,0,U,69960,999,259,-.10635426E-1,-.222155E-1,0
STARLINK-37910,2026-157U,2026-07-17T22:00:01.999584,15.85765277,.0000876,53.1589,281.9236,81.7487,163.1290,0,U,69961,999,259,-.10367082E-1,-.2203599E-1,0
STARLINK-37925,2026-157V,2026-07-17T22:00:01.999584,15.85793542,.00008712,53.1586,281.9197,75.6197,171.1393,0,U,69962,999,259,-.10353669E-1,-.2203778E-1,0
STARLINK-37931,2026-157W,2026-07-17T22:00:01.999584,15.85764951,.00009339,53.1588,281.9127,69.0078,181.1922,0,U,69963,999,259,-.1046897E-1,-.2221879E-1,0
STARLINK-37914,2026-157X,2026-07-17T22:00:01.999584,15.86266441,.00010186,53.1587,281.8821,72.3361,192.3723,0,U,69964,999,259,-.10051562E-1,-.2192415E-1,0
STARLINK-37840,2026-157Y,2026-07-17T22:00:01.999584,15.87668329,.00008675,53.1584,281.8603,73.3693,201.9236,0,U,69965,999,259,-.95030473E-2,-.2218139E-1,0
STARLINK-37894,2026-157Z,2026-07-17T22:00:01.999584,15.86628091,.00009039,53.1584,281.8637,79.5186,194.0001,0,U,69966,999,259,-.10081963E-1,-.223141E-1,0
STARLINK-37875,2026-157AA,2026-07-17T22:00:01.999584,15.87032971,.00008353,53.1583,281.8463,69.8225,212.0561,0,U,69967,999,259,-.98680845E-2,-.222899E-1,0
STARLINK-36218,2026-157AB,2026-07-17T22:00:01.999584,15.87715007,.00007939,53.1581,281.8263,71.6251,219.8230,0,U,69968,999,224,-.9401109E-2,-.2202294E-1,0
STARLINK-37921,2026-157AC,2026-07-17T22:00:01.999584,15.88260105,.00007606,53.1581,281.7946,75.3993,231.2262,0,U,69969,999,259,-.91703936E-2,-.2207261E-1,0
STARLINK-37896,2026-157AD,2026-07-17T22:00:01.999584,15.88230175,.00007806,53.1581,281.7918,78.5779,229.3710,0,U,69970,999,259,-.92152264E-2,-.2213566E-1,0
STARLINK-37922,2026-157AE,2026-07-17T22:00:01.999584,15.88270046,.00007775,53.1580,281.7893,75.0007,234.0064,0,U,69971,999,259,-.91752915E-2,-.2209221E-1,0
STARLINK-38024,2026-159A,2026-07-17T22:00:01.999584,15.88258986,.00012978,97.2859,37.7289,93.5245,215.3990,0,U,69975,999,229,-.6894781E-2,-.1646543E-1,0
STARLINK-37993,2026-159B,2026-07-17T22:00:01.999584,15.88493731,.00013179,97.2858,37.7295,90.2139,220.9227,0,U,69976,999,229,-.67214939E-2,-.162696E-1,0
STARLINK-37995,2026-159C,2026-07-17T22:00:01.999584,15.88718499,.00013311,97.2858,37.7306,97.6297,215.7666,0,U,69977,999,229,-.65758776E-2,-.1611905E-1,0
STARLINK-38057,2026-159D,2026-07-17T22:00:01.999584,15.88931168,.00013212,97.2859,37.7314,97.0199,218.7247,0,U,69978,999,229,-.6447792E-2,-.1599256E-1,0
STARLINK-38063,2026-159E,2026-07-17T22:00:01.999584,15.89137435,.0001343,97.2860,37.7326,95.2267,222.8869,0,U,69979,999,229,-.6338218E-2,-.1556014E-1,0
STARLINK-38093,2026-159F,2026-07-17T22:00:01.999584,15.89338413,.0001274,97.2862,37.7334,90.5650,229.9264,0,U,69980,999,229,-.62355079E-2,-.154778E-1,0
STARLINK-38050,2026-159G,2026-07-17T22:00:01.999584,15.89540214,.00013005,97.2861,37.7343,99.3562,223.3764,0,U,69981,999,229,-.61264632E-2,-.1766011E-1,.84282688E-3
