STARLINK-37923          
1 69949U 26157G   26198.91668981 -.02098062  00000+0 -11334-1 0  9993
2 69949  53.1592 282.0746 0000904  77.0581  95.3482 15.82731844  2594
STARLINK-37895          
1 69950U 26157H   26198.91668981 -.02140641  00000+0 -11450-1 0  9995
2 69950  53.1591 282.0596 0001213  72.3961 107.0674 15.83010481  2594
STARLINK-37841          
1 69951U 26157J   26198.91668981 -.01691004  00000+0 -88178-2 0  9991
2 69951  53.1593 282.0388 0001096  75.2235 114.2834 15.83284507  2591
STARLINK-37899          
1 69952U 26157K   26198.91668981 -.02038473  00000+0 -10387-1 0  9994
2 69952  53.1590 282.0161 0001150  74.1472 126.2053 15.83846321  2594
STARLINK-37900          
1 69953U 26157L   26198.91668981 -.02030056  00000+0 -10245-1 0  9997
2 69953  53.1590 282.0094 0001436  66.5171 137.2244 15.84028071  2597
STARLINK-37882          
1 69954U 26157M   26198.91668981 -.02212171  00000+0 -11038-1 0  9999
2 69954  53.1591 281.9890 0001012  70.3541 142.9944 15.84578376  2593
STARLINK-37928          
1 69955U 26157N   26198.91668981 -.02230648  00000+0 -11223-1 0  9995
2 69955  53.1593 281.9866 0001119  70.3617 144.0879 15.84437784  2598
STARLINK-37824          
1 69956U 26157P   26198.91668981 -.02217371  00000+0 -11095-1 0  9991
2 69956  53.1590 281.9845 0001213  83.8147 131.8086 15.84526191  2590
STARLINK-37919          
1 69957U 26157Q   26198.91668981 -.02225143  00000+0 -11173-1 0  9995
2 69957  53.1592 281.9821 0000926  72.3178 144.4390 15.84472154  2591
STARLINK-37964          
1 69958U 26157R   26198.91668981 -.02384727  00000+0 -11608-1 0  9993
2 69958  53.1590 281.9697 0000914  75.2977 147.3787 15.84774315  2593
STARLINK-37907          
1 69959U 26157S   26198.91668981 -.02201049  00000+0 -10619-1 0  9990
2 69959  53.1589 281.9525 0001048  72.7238 158.2407 15.85246335  2590
STARLINK-37901          
1 69960U 26157T   26198.91668981 -.02221550  00000+0 -10635-1 0  9999
2 69960  53.1588 281.9400 0001060  78.3865 158.6032 15.85439132  2592
STARLINK-37910          
1 69961U 26157U   26198.91668981 -.02203599  00000+0 -10367-1 0  9995
2 69961  53.1589 281.9236 0000876  81.7487 163.1290 15.85765277  2592
STARLINK-37925          
1 69962U 26157V   26198.91668981 -.02203778  00000+0 -10354-1 0  9991
2 69962  53.1586 281.9197 0000871  75.6197 171.1393 15.85793542  2590
STARLINK-37931          
1 69963U 26157W   26198.91668981 -.02221879  00000+0 -10469-1 0  9991
2 69963  53.1588 281.9127 0000933  69.0078 181.1922 15.85764951  2591
STARLINK-37914          
1 69964U 26157X   26198.91668981 -.02192415  00000+0 -10052-1 0  9993
2 69964  53.1587 281.8821 0001018  72.3361 192.3723 15.86266441  2593
STARLINK-37840          
1 69965U 26157Y   26198.91668981 -.02218139  00000+0 -95030-2 0  9996
2 69965  53.1584 281.8603 0000867  73.3693 201.9236 15.87668329  2597
STARLINK-37894          
1 69966U 26157Z   26198.91668981 -.02231410  00000+0 -10082-1 0  9997
2 69966  53.1584 281.8637 0000903  79.5186 194.0001 15.86628091  2594
STARLINK-37875          
1 69967U 26157AA  26198.91668981 -.02228990  00000+0 -98681-2 0  9999
2 69967  53.1583 281.8463 0000835  69.8225 212.0561 15.87032971  2590
STARLINK-36218          
1 69968U 26157AB  26198.91668981 -.02202294  00000+0 -94011-2 0  9992
2 69968  53.1581 281.8263 0000793  71.6251 219.8230 15.87715007  2248
STARLINK-37921          
1 69969U 26157AC  26198.91668981 -.02207261  00000+0 -91704-2 0  9998
2 69969  53.1581 281.7946 0000760  75.3993 231.2262 15.88260105  2590
STARLINK-37896          
1 69970U 26157AD  26198.91668981 -.02213566  00000+0 -92152-2 0  9993
2 69970  53.1581 281.7918 0000780  78.5779 229.3710 15.88230175  2590
STARLINK-37922          
1 69971U 26157AE  26198.91668981 -.02209221  00000+0 -91753-2 0  9993
2 69971  53.1580 281.7893 0000777  75.0007 234.0064 15.88270046  2590
STARLINK-38024          
1 69975U 26159A   26198.91668981 -.01646543  00000+0 -68948-2 0  9990
2 69975  97.2859  37.7289 0001297  93.5245 215.3990 15.88258986  2293
STARLINK-37993          
1 69976U 26159B   26198.91668981 -.01626960  00000+0 -67215-2 0  9998
2 69976  97.2858  37.7295 0001317  90.2139 220.9227 15.88493731  2293
STARLINK-37995          
1 69977U 26159C   26198.91668981 -.01611905  00000+0 -65759-2 0  9993
2 69977  97.2858  37.7306 0001331  97.6297 215.7666 15.88718499  2299
STARLINK-38057          
1 69978U 26159D   26198.91668981 -.01599256  00000+0 -64478-2 0  9995
2 69978  97.2859  37.7314 0001321  97.0199 218.7247 15.88931168  2292
STARLINK-38063          
1 69979U 26159E   26198.91668981 -.01556014  00000+0 -63382-2 0  9994
2 69979  97.2860  37.7326 0001343  95.2267 222.8869 15.89137435  2290
STARLINK-38093          
1 69980U 26159F   26198.91668981 -.01547780  00000+0 -62355-2 0  9995
2 69980  97.2862  37.7334 0001274  90.5650 229.9264 15.89338413  2296
STARLINK-38050          
1 69981U 26159G   26198.91668981 -.01766011  84283-3 -61265-2 0  9994
2 69981  97.2861  37.7343 0001300  99.3562 223.3764 15.89540214  2292
